[{"OBJECT_NAME":"FLOCK 4G-30","OBJECT_ID":"2025-009BY","EPOCH":"2026-03-09T17:00:32.842080","MEAN_MOTION":15.27244548,"ECCENTRICITY":0.00037948,"INCLINATION":97.3969,"RA_OF_ASC_NODE":150.6012,"ARG_OF_PERICENTER":342.4152,"MEAN_ANOMALY":17.6955,"EPHEMERIS_TYPE":0,"CLASSIFICATION_TYPE":"U","NORAD_CAT_ID":62679,"ELEMENT_SET_NO":999,"REV_AT_EPOCH":12134,"BSTAR":0.00049474629,"MEAN_MOTION_DOT":0.00013147,"MEAN_MOTION_DDOT":0},{"OBJECT_NAME":"STARLINK-33758","OBJECT_ID":"2025-101L","EPOCH":"2026-03-08T20:04:55.124832","MEAN_MOTION":15.27581192,"ECCENTRICITY":5.078e-5,"INCLINATION":43.0012,"RA_OF_ASC_NODE":2.8821,"ARG_OF_PERICENTER":258.3313,"MEAN_ANOMALY":101.7481,"EPHEMERIS_TYPE":0,"CLASSIFICATION_TYPE":"U","NORAD_CAT_ID":64004,"ELEMENT_SET_NO":999,"REV_AT_EPOCH":4692,"BSTAR":0.0015990439,"MEAN_MOTION_DOT":0.00044004,"MEAN_MOTION_DDOT":0}]
